              M50 Cartesian                         M50 Keplerian  
    -----------------------------------       --------------------------------
     X    =         863965.32                 A    =         6780137.86  meter
     Y    =        4981118.47  meter          E    =           .0008512
     Z    =       -4526072.83                 I    =           51.93216
     XDOT =      -5757.316739                 Wp   =          101.00556
     YDOT =       3908.148257  meter/sec      RA   =          124.68157  deg
     ZDOT =       3205.595116                 TA   =          201.08132
                                              MA   =          201.11642
                                              Ha   =            220.580  n.mi
                                              Hp   =            214.645
 
              M50 Cartesian                         J2K Cartesian  
    -----------------------------------       --------------------------------
     X    =        2834531.88                 X    =          830186.68
     Y    =       16342252.19  feet           Y    =         4990590.30  meter
     Z    =      -14849320.29                 Z    =        -4521958.76
     XDOT =     -18888.834446                 XDOT =       -5816.162108
     YDOT =      12822.008718  feet/sec       YDOT =        3843.437611  meter/sec
     ZDOT =      10517.044343                 ZDOT =        3177.483997
 
              TDR Cartesian                         TDR Cartesian  
    -----------------------------------       --------------------------------
     X    =       -3760379.93                 X    =        -1146163.80
     Y    =       16170035.47  feet           Y    =         4928626.81  meter
     Z    =      -14832248.20                 Z    =        -4520869.25
     XDOT =     -21299.790100                 XDOT =       -6492.176023
     YDOT =       4570.401689  feet/sec       YDOT =        1393.058435  meter/sec
     ZDOT =      10394.265379                 ZDOT =        3168.172087
  
  
    The mean element set is posted at the UTC for which position is
    just north of the next ascending node relative to the above
    vector time
 
 
    TWO LINE MEAN ELEMENT SET
  
    ISS
    1 25544U 98067A   16083.44442881  .00016717  00000-0  10270-3 0  9178
    2 25544  51.6415 125.6692 0001929 338.1438  21.9633 15.54312411 31641
  
  
    Satellite: ISS
    Catalog Number: 25544
    Epoch time:      16083.44442881   =   yrday.fracday
    Element set:     917
    Inclination:       51.6415  deg
    RA of node:       125.6692  deg
    Eccentricity:     .0001929     
    Arg of perigee:   338.1438  deg
    Mean anomaly:      21.9633  deg
    Mean motion:   15.54312411  rev/day
    Decay rate:    1.67170E-04  rev/day^2
    Epoch rev:            3164
    Checksum:              303
 
 
    Coasting Arc #19 (Orbit 3175)
    ---------------------------------------
 
    Vector Time (GMT): 2016/084/04:20:00.000
    Vector Time (MET): N/A
    Weight (LBS)     : 905478.2
 
              M50 Cartesian                         M50 Keplerian  
    -----------------------------------       --------------------------------
     X    =        2226305.91                 A    =         6787649.00  meter
     Y    =       -6194079.22  meter          E    =           .0012750
     Z    =        1635819.38                 I    =           51.96786
     XDOT =       5067.758538                 Wp   =          110.68148
     YDOT =        294.883124  meter/sec      RA   =          120.97915  deg
     ZDOT =      -5748.800563                 TA   =           51.48754
                                              MA   =           51.37328
                                              Ha   =            220.625  n.mi
                                              Hp   =            214.552
 
              M50 Cartesian                         J2K Cartesian  
    -----------------------------------       --------------------------------
     X    =        7304153.23                 X    =         2287458.06
     Y    =      -20321782.23  feet           Y    =        -6168841.01  meter
     Z    =        5366861.49                 Z    =         1646783.75
     XDOT =      16626.504390                 XDOT =        5092.009670
     YDOT =        967.464318  feet/sec       YDOT =         351.688849  meter/sec
     ZDOT =     -18860.894235                 ZDOT =       -5724.123779
 
              TDR Cartesian                         TDR Cartesian  
    -----------------------------------       --------------------------------
     X    =       15667135.81                 X    =         4775342.99
     Y    =       14843913.39  feet           Y    =         4524424.80  meter
     Z    =        5415512.97                 Z    =         1650648.35
     XDOT =      -6551.977464                 XDOT =       -1997.042731
     YDOT =      13794.868201  feet/sec       YDOT =        4204.675828  meter/sec
     ZDOT =     -18753.713462                 ZDOT =       -5716.131863
  
  
    The mean element set is posted at the UTC for which position is
    just north of the next ascending node relative to the above
    vector time
 
 
    TWO LINE MEAN ELEMENT SET
  
    ISS
    1 25544U 98067A   16084.21596912  .00016717  00000-0  10270-3 0  9180
    2 25544  51.6389 121.8184 0001806 342.6450  17.4641 15.54309807 31760
  
  
    Satellite: ISS
    Catalog Number: 25544
    Epoch time:      16084.21596912   =   yrday.fracday
    Element set:     918
    Inclination:       51.6389  deg
    RA of node:       121.8184  deg
    Eccentricity:     .0001806     
    Arg of perigee:   342.6450  deg
    Mean anomaly:      17.4641  deg
    Mean motion:   15.54309807  rev/day
    Decay rate:    1.67170E-04  rev/day^2
    Epoch rev:            3176
    Checksum:              314
 
             </PRE>
           </TD>
        </TR>
    </TABLE>
    
    <table align="center" border="0" width="600" cellpadding="0" cellspacing="0">
      <tr>
        <td align="center" valign="top"><hr size="1" width="600" noshade="noshade" />
        <font face="Arial,helvetica" size="-2">Curator: <a href="/cgi-bin/comment.cgi?jsc-hsfwebma@mail.nasa.gov">Kim 
          Dismukes</a> | Responsible NASA Official: <a href="/cgi-bin/comment.cgi?jsc-hsfwebma@mail.nasa.gov">Amiko Kauderer</a> | Updated: 06/08/2009<br />
        <a href="http://www.nasa.gov/about/highlights/HP_Privacy.html">Privacy Policy and Important Notices</a></font></td>
      </tr>
    </table>
    </body>
    </html>
